IRIDIUM 36              
1 24967U 97056C   24159.51303606  .00000921  00000+0  30535-3 0  9990
2 24967  86.3954 330.3569 0002254  93.9821 266.1634 14.36832058398401
IRIDIUM 39              
1 25042U 97069D   24159.05772235  .00001071  00000+0  28240-3 0  9993
2 25042  86.3928  11.8885 0020198 115.2813 245.0486 14.47984330394911
IRIDIUM 38              
1 25043U 97069E   24159.38431248  .00000708  00000+0  23105-3 0  9997
2 25043  86.3976  30.7830 0000717 132.9498 227.1760 14.37285282392367
IRIDIUM 42              
1 25077U 97077A   24159.35582756  .00000679  00000+0  22887-3 0  9994
2 25077  86.3979  36.5030 0001551  85.8448 274.2926 14.35584908387402
IRIDIUM 44              
1 25078U 97077B   24159.06446974  .00000807  00000+0  25312-3 0  9993
2 25078  86.3971  19.5614 0002759 128.3943 231.7504 14.39420995389757
IRIDIUM 45              
1 25104U 97082A   24158.43281571  .00012615  00000+0  71017-3 0  9992
2 25104  86.3763 227.2945 0156982 278.3000  80.0460 15.03130181395243
IRIDIUM 24              
1 25105U 97082B   24158.47094304  .00000892  00000+0  27045-3 0  9999
2 25105  86.3929 239.4040 0009747 231.1768 128.8562 14.41204206389083
IRIDIUM 51              
1 25262U 98018A   24158.25290595  .00020789  00000+0  96741-3 0  9995
2 25262  86.3975 237.2315 0144412 222.3977 136.6034 15.10913646389760
